[{"OBJECT_NAME":"STARLINK-6310","OBJECT_ID":"2023-065AG","EPOCH":"2026-03-09T22:00:01.999584","MEAN_MOTION":15.13128188,"ECCENTRICITY":0.00017884,"INCLINATION":42.9996,"RA_OF_ASC_NODE":195.8795,"ARG_OF_PERICENTER":265.7074,"MEAN_ANOMALY":13.4046,"EPHEMERIS_TYPE":0,"CLASSIFICATION_TYPE":"U","NORAD_CAT_ID":56533,"ELEMENT_SET_NO":999,"REV_AT_EPOCH":547,"BSTAR":0.0040477251,"MEAN_MOTION_DOT":0.00073522,"MEAN_MOTION_DDOT":0},{"OBJECT_NAME":"OPS 8781","OBJECT_ID":"1977-112A","EPOCH":"2026-03-09T22:31:12.770400","MEAN_MOTION":14.07197929,"ECCENTRICITY":0.04784864,"INCLINATION":63.3307,"RA_OF_ASC_NODE":25.3716,"ARG_OF_PERICENTER":160.9136,"MEAN_ANOMALY":201.0559,"EPHEMERIS_TYPE":0,"CLASSIFICATION_TYPE":"U","NORAD_CAT_ID":10502,"ELEMENT_SET_NO":999,"REV_AT_EPOCH":9410,"BSTAR":0.00010438092,"MEAN_MOTION_DOT":3.53e-6,"MEAN_MOTION_DDOT":0}]
